{"type":"FeatureCollection","features":[{"type":"Feature","id":"1","properties":{"name":"毕宿","en":"Net","pinyin":"Bi Xiu","desig":"毕宿","rank":1,"display":[64.9945,15.8353,9.6]},"geometry":{"type":"Point","coordinates":[64.9945,15.8353]}},{"type":"Feature","id":"2","properties":{"name":"壁宿","en":"Wall","pinyin":"Bi Xiu","desig":"壁宿","rank":1,"display":[2.703,22.137,13.9]},"geometry":{"type":"Point","coordinates":[2.703,22.137]}},{"type":"Feature","id":"3","properties":{"name":"参宿","en":"Three Stars","pinyin":"Shen Xiu","desig":"参宿","rank":1,"display":[83.7137,-1.1313,17.1]},"geometry":{"type":"Point","coordinates":[83.7137,-1.1313]}},{"type":"Feature","id":"4","properties":{"name":"氐宿","en":"Root","pinyin":"Di Xiu","desig":"氐宿","rank":1,"display":[-131.6994,-14.5873,11.2]},"geometry":{"type":"Point","coordinates":[-131.6994,-14.5873]}},{"type":"Feature","id":"5","properties":{"name":"斗宿","en":"Dipper","pinyin":"Dou Xiu","desig":"斗宿","rank":1,"display":[-79.9121,-25.4695,13.3]},"geometry":{"type":"Point","coordinates":[-79.9121,-25.4695]}},{"type":"Feature","id":"6","properties":{"name":"房宿","en":"Room","pinyin":"Fang Xiu","desig":"房宿","rank":1,"display":[-119.7097,-24.5098,9.4]},"geometry":{"type":"Point","coordinates":[-119.7097,-24.5098]}},{"type":"Feature","id":"7","properties":{"name":"鬼宿","en":"Ghosts","pinyin":"Gui Xiu","desig":"鬼宿","rank":1,"display":[129.5351,19.7815,3.4]},"geometry":{"type":"Point","coordinates":[129.5351,19.7815]}},{"type":"Feature","id":"8","properties":{"name":"箕宿","en":"Winnowing Basket","pinyin":"Ji Xiu","desig":"箕宿","rank":1,"display":[-86.2525,-33.2949,6.9]},"geometry":{"type":"Point","coordinates":[-86.2525,-33.2949]}},{"type":"Feature","id":"9","properties":{"name":"角宿","en":"Horn","pinyin":"Jiao Xiu","desig":"角宿","rank":1,"display":[-157.5142,-5.8786,10.6]},"geometry":{"type":"Point","coordinates":[-157.5142,-5.8786]}},{"type":"Feature","id":"10","properties":{"name":"井宿","en":"Well","pinyin":"Jing Xiu","desig":"井宿","rank":1,"display":[101.6213,19.0134,15.8]},"geometry":{"type":"Point","coordinates":[101.6213,19.0134]}},{"type":"Feature","id":"11","properties":{"name":"亢宿","en":"Neck","pinyin":"Kang Xiu","desig":"亢宿","rank":1,"display":[-144.8627,-7.7995,11.1]},"geometry":{"type":"Point","coordinates":[-144.8627,-7.7995]}},{"type":"Feature","id":"12","properties":{"name":"奎宿","en":"Legs","pinyin":"Kui Xiu","desig":"奎宿","rank":1,"display":[14.7505,31.0568,20]},"geometry":{"type":"Point","coordinates":[14.7505,31.0568]}},{"type":"Feature","id":"13","properties":{"name":"柳宿","en":"Willow","pinyin":"Liu Xiu","desig":"柳宿","rank":1,"display":[134.0025,4.3666,9.2]},"geometry":{"type":"Point","coordinates":[134.0025,4.3666]}},{"type":"Feature","id":"14","properties":{"name":"娄宿","en":"Bond","pinyin":"Lou Xiu","desig":"娄宿","rank":1,"display":[30.088,21.3781,4.2]},"geometry":{"type":"Point","coordinates":[30.088,21.3781]}},{"type":"Feature","id":"15","properties":{"name":"昴宿","en":"Hairy Head","pinyin":"Mao Xiu","desig":"昴宿","rank":1,"display":[56.7548,24.2514,1.1]},"geometry":{"type":"Point","coordinates":[56.7548,24.2514]}},{"type":"Feature","id":"16","properties":{"name":"牛宿","en":"Ox","pinyin":"Niu Xiu","desig":"牛宿","rank":1,"display":[-54.7088,-15.5641,6]},"geometry":{"type":"Point","coordinates":[-54.7088,-15.5641]}},{"type":"Feature","id":"17","properties":{"name":"女宿","en":"Girl","pinyin":"Nü Xiu","desig":"女宿","rank":1,"display":[-47.4588,-7.2617,4.5]},"geometry":{"type":"Point","coordinates":[-47.4588,-7.2617]}},{"type":"Feature","id":"18","properties":{"name":"室宿","en":"Encampment","pinyin":"Shi Xiu","desig":"室宿","rank":1,"display":[-13.9331,21.6441,12.9]},"geometry":{"type":"Point","coordinates":[-13.9331,21.6441]}},{"type":"Feature","id":"19","properties":{"name":"太微右垣","en":"Supreme Palace Right Wall","pinyin":"Tai Wei You Yuan","desig":"太微右垣","rank":2,"display":[173.1005,11.1442,18.8]},"geometry":{"type":"Point","coordinates":[173.1005,11.1442]}},{"type":"Feature","id":"20","properties":{"name":"太微左垣","en":"Supreme Palace Left Wall","pinyin":"Tai Wei Zuo Yuan","desig":"太微左垣","rank":2,"display":[-168.7632,8.04,19]},"geometry":{"type":"Point","coordinates":[-168.7632,8.04]}},{"type":"Feature","id":"21","properties":{"name":"天市右垣","en":"Heavenly Market Right Wall","pinyin":"Tian Shi You Yuan","desig":"天市右垣","rank":2,"display":[-118.5048,5.4613,32.1]},"geometry":{"type":"Point","coordinates":[-118.5048,5.4613]}},{"type":"Feature","id":"22","properties":{"name":"天市左垣","en":"Heavenly Market Left Wall","pinyin":"Tian Shi Zuo Yuan","desig":"天市左垣","rank":2,"display":[-88.0265,6.5188,44.5]},"geometry":{"type":"Point","coordinates":[-88.0265,6.5188]}},{"type":"Feature","id":"23","properties":{"name":"危宿","en":"Rooftop","pinyin":"Wei Xiu","desig":"危宿","rank":1,"display":[-30.7018,4.7776,10.2]},"geometry":{"type":"Point","coordinates":[-30.7018,4.7776]}},{"type":"Feature","id":"24","properties":{"name":"尾宿","en":"Tail","pinyin":"Wei Xiu","desig":"尾宿","rank":1,"display":[-100.2815,-38.7662,14.4]},"geometry":{"type":"Point","coordinates":[-100.2815,-38.7662]}},{"type":"Feature","id":"25","properties":{"name":"胃宿","en":"Stomach","pinyin":"Wei Xiu","desig":"胃宿","rank":1,"display":[41.6795,28.2538,2]},"geometry":{"type":"Point","coordinates":[41.6795,28.2538]}},{"type":"Feature","id":"26","properties":{"name":"心宿","en":"Heart","pinyin":"Xin Xiu","desig":"心宿","rank":1,"display":[-112.8661,-26.9044,3.7]},"geometry":{"type":"Point","coordinates":[-112.8661,-26.9044]}},{"type":"Feature","id":"27","properties":{"name":"星宿","en":"Star","pinyin":"Xing Xiu","desig":"星宿","rank":1,"display":[142.4536,-6.5588,10.8]},"geometry":{"type":"Point","coordinates":[142.4536,-6.5588]}},{"type":"Feature","id":"28","properties":{"name":"虚宿","en":"Emptiness","pinyin":"Xu Xiu","desig":"虚宿","rank":1,"display":[-39.0771,-0.1617,10.8]},"geometry":{"type":"Point","coordinates":[-39.0771,-0.1617]}},{"type":"Feature","id":"29","properties":{"name":"翼宿","en":"Wings","pinyin":"Yi Xiu","desig":"翼宿","rank":1,"display":[170.7051,-18.5479,17.5]},"geometry":{"type":"Point","coordinates":[170.7051,-18.5479]}},{"type":"Feature","id":"30","properties":{"name":"张宿","en":"Extended Net","pinyin":"Zhang Xiu","desig":"张宿","rank":1,"display":[152.3611,-15.2277,14.6]},"geometry":{"type":"Point","coordinates":[152.3611,-15.2277]}},{"type":"Feature","id":"31","properties":{"name":"轸宿","en":"Chariot","pinyin":"Zhen Xiu","desig":"轸宿","rank":1,"display":[-174.6499,-20.4624,8.5]},"geometry":{"type":"Point","coordinates":[-174.6499,-20.4624]}},{"type":"Feature","id":"32","properties":{"name":"紫微右垣","en":"Purple Forbidden Right Wall","pinyin":"Zi Wei You Yuan","desig":"紫微右垣","rank":2,"display":[130.5471,67.1031,161.1]},"geometry":{"type":"Point","coordinates":[130.5471,67.1031]}},{"type":"Feature","id":"33","properties":{"name":"紫微左垣","en":"Purple Forbidden Left Wall","pinyin":"Zi Wei Zuo Yuan","desig":"紫微左垣","rank":2,"display":[-58.412800000000004,66.9764,16.8]},"geometry":{"type":"Point","coordinates":[-58.412800000000004,66.9764]}},{"type":"Feature","id":"34","properties":{"name":"觜宿","en":"Turtle Beak","pinyin":"Zi Xiu","desig":"觜宿","rank":1,"display":[83.9659,9.6124,0.6]},"geometry":{"type":"Point","coordinates":[83.9659,9.6124]}},{"type":"Feature","id":"35","properties":{"name":"八谷","en":"Eight Kinds of Crops","pinyin":"Ba Gu","desig":"八谷","rank":3,"display":[82.1018,57.1444,15.6]},"geometry":{"type":"Point","coordinates":[82.1018,57.1444]}},{"type":"Feature","id":"36","properties":{"name":"八魁","en":"Net for Catching Birds","pinyin":"Ba Kui","desig":"八魁","rank":3,"display":[-357.3479,-14.7212,8.4]},"geometry":{"type":"Point","coordinates":[-357.3479,-14.7212]}},{"type":"Feature","id":"37","properties":{"name":"败瓜","en":"Rotten Gourd","pinyin":"Bai Gua","desig":"败瓜","rank":3,"display":[-50.9572,11.7007,3.2]},"geometry":{"type":"Point","coordinates":[-50.9572,11.7007]}},{"type":"Feature","id":"38","properties":{"name":"败臼","en":"Decayed Mortar","pinyin":"Bai Jiu","desig":"败臼","rank":3,"display":[-24.1932,-34.4522,14.6]},"geometry":{"type":"Point","coordinates":[-24.1932,-34.4522]}},{"type":"Feature","id":"39","properties":{"name":"北斗","en":"Northern Dipper","pinyin":"Bei Dou","desig":"北斗","rank":3,"display":[-173.8272,55.5322,41.4]},"geometry":{"type":"Point","coordinates":[-173.8272,55.5322]}},{"type":"Feature","id":"40","properties":{"name":"北河","en":"North River","pinyin":"Bei He","desig":"北河","rank":3,"display":[114.3035,29.9573,4.1]},"geometry":{"type":"Point","coordinates":[114.3035,29.9573]}},{"type":"Feature","id":"41","properties":{"name":"北极","en":"Northern Pole","pinyin":"Bei Ji","desig":"北极","rank":3,"display":[-148.7555,77.6234,37.9]},"geometry":{"type":"Point","coordinates":[-148.7555,77.6234]}},{"type":"Feature","id":"42","properties":{"name":"北落师门","en":"North Gate of the Military Camp","pinyin":"Bei Luo Shi Men","desig":"北落师门","rank":3,"display":[-15.5873,-29.6222,0]},"geometry":{"type":"Point","coordinates":[-15.5873,-29.6222]}},{"type":"Feature","id":"43","properties":{"name":"鳖","en":"River Turtle","pinyin":"Bie","desig":"鳖","rank":3,"display":[-77.8746,-41.516,10.8]},"geometry":{"type":"Point","coordinates":[-77.8746,-41.516]}},{"type":"Feature","id":"44","properties":{"name":"波斯","en":"Persia","pinyin":"Bo Si","desig":"波斯","rank":3,"display":[-45.8709,-51.5875,31.9]},"geometry":{"type":"Point","coordinates":[-45.8709,-51.5875]}},{"type":"Feature","id":"45","properties":{"name":"帛度","en":"Textile Ruler","pinyin":"Bo Du","desig":"帛度","rank":3,"display":[-88.7169,21.2052,1.8]},"geometry":{"type":"Point","coordinates":[-88.7169,21.2052]}},{"type":"Feature","id":"46","properties":{"name":"参旗","en":"Banner of Three Stars","pinyin":"Can Qi","desig":"参旗","rank":3,"display":[73.5486,7.9823,12.5]},"geometry":{"type":"Point","coordinates":[73.5486,7.9823]}},{"type":"Feature","id":"47","properties":{"name":"厕","en":"Toilet","pinyin":"Ce","desig":"厕","rank":3,"display":[84.9459,-20.1353,5.8]},"geometry":{"type":"Point","coordinates":[84.9459,-20.1353]}},{"type":"Feature","id":"48","properties":{"name":"策","en":"Whip","pinyin":"Ce","desig":"策","rank":3,"display":[14.1772,60.7167,0]},"geometry":{"type":"Point","coordinates":[14.1772,60.7167]}},{"type":"Feature","id":"49","properties":{"name":"常陈","en":"Royal Guards","pinyin":"Chang Chen","desig":"常陈","rank":3,"display":[-172.7324,40.682,13.5]},"geometry":{"type":"Point","coordinates":[-172.7324,40.682]}},{"type":"Feature","id":"50","properties":{"name":"车府","en":"Big Yard for Chariots","pinyin":"Che Fu","desig":"车府","rank":3,"display":[-31.0175,43.9673,28.1]},"geometry":{"type":"Point","coordinates":[-31.0175,43.9673]}},{"type":"Feature","id":"51","properties":{"name":"车骑","en":"Chariots and Cavalry","pinyin":"Che Qi","desig":"车骑","rank":3,"display":[-136.8872,-50.7625,9.9]},"geometry":{"type":"Point","coordinates":[-136.8872,-50.7625]}},{"type":"Feature","id":"52","properties":{"name":"车肆","en":"Commodity Market","pinyin":"Che Si","desig":"车肆","rank":3,"display":[-110.2954,-9.5773,5.5]},"geometry":{"type":"Point","coordinates":[-110.2954,-9.5773]}},{"type":"Feature","id":"53","properties":{"name":"刍藁","en":"Hay","pinyin":"Chu Gao","desig":"刍藁","rank":3,"display":[37.0685,-7.5352,9.5]},"geometry":{"type":"Point","coordinates":[37.0685,-7.5352]}},{"type":"Feature","id":"54","properties":{"name":"杵(箕宿)","en":"Pestle (In Winnowing Basket Mansion)","pinyin":"Chu(Ji Xiu)","desig":"杵(箕宿)","rank":3,"display":[-97.38,-51.0178,9]},"geometry":{"type":"Point","coordinates":[-97.38,-51.0178]}},{"type":"Feature","id":"55","properties":{"name":"杵(危宿)","en":"Pestle (In Rooftop Mansion)","pinyin":"Chu(Wei Xiu)","desig":"杵(危宿)","rank":3,"display":[-27.3066,33.3564,8.8]},"geometry":{"type":"Point","coordinates":[-27.3066,33.3564]}},{"type":"Feature","id":"56","properties":{"name":"长沙(附官)","en":"Changsha (Vassal of Chariot)","pinyin":"Chang Sha","desig":"长沙(附官)","rank":3,"display":[-174.8598,-22.2159,0]},"geometry":{"type":"Point","coordinates":[-174.8598,-22.2159]}},{"type":"Feature","id":"57","properties":{"name":"传舍","en":"Guest House","pinyin":"Chuan She","desig":"传舍","rank":3,"display":[-335.2605,61.6293,12.4]},"geometry":{"type":"Point","coordinates":[-335.2605,61.6293]}},{"type":"Feature","id":"58","properties":{"name":"从官(房宿)","en":"Retinue (In Room Mansion)","pinyin":"Cong Guan(Fang Xiu)","desig":"从官(房宿)","rank":3,"display":[-123.2947,-34.1688,2.1]},"geometry":{"type":"Point","coordinates":[-123.2947,-34.1688]}},{"type":"Feature","id":"59","properties":{"name":"从官(太微垣)","en":"Retinue (In Supreme Palace Enclosure)","pinyin":"Cong Guan(Tai Wei Yuan)","desig":"从官(太微垣)","rank":3,"display":[175.1961,21.3527,0]},"geometry":{"type":"Point","coordinates":[175.1961,21.3527]}},{"type":"Feature","id":"60","properties":{"name":"大角","en":"Great Horn","pinyin":"Da Jiao","desig":"大角","rank":3,"display":[-146.0847,19.1824,0]},"geometry":{"type":"Point","coordinates":[-146.0847,19.1824]}},{"type":"Feature","id":"61","properties":{"name":"大理","en":"Chief Judge","pinyin":"Da Li","desig":"大理","rank":3,"display":[-176.9502,77.6162,0]},"geometry":{"type":"Point","coordinates":[-176.9502,77.6162]}},{"type":"Feature","id":"62","properties":{"name":"大陵","en":"Mausoleum","pinyin":"Da Ling","desig":"大陵","rank":3,"display":[41.4817,47.0822,17.5]},"geometry":{"type":"Point","coordinates":[41.4817,47.0822]}},{"type":"Feature","id":"64","properties":{"name":"帝席","en":"Mattress of the Emperor","pinyin":"Di Xi","desig":"帝席","rank":3,"display":[-149.1289,26.2919,3.5]},"geometry":{"type":"Point","coordinates":[-149.1289,26.2919]}},{"type":"Feature","id":"65","properties":{"name":"帝座","en":"Emperor's Seat","pinyin":"Di Zuo","desig":"帝座","rank":3,"display":[-101.3381,14.3903,0]},"geometry":{"type":"Point","coordinates":[-101.3381,14.3903]}},{"type":"Feature","id":"66","properties":{"name":"东咸","en":"Eastern Door","pinyin":"Dong Xian","desig":"东咸","rank":3,"display":[-112.97,-19.0395,4.9]},"geometry":{"type":"Point","coordinates":[-112.97,-19.0395]}},{"type":"Feature","id":"67","properties":{"name":"斗","en":"Dipper for Liquids","pinyin":"Dou","desig":"斗","rank":3,"display":[-113.7289,10.5703,6.9]},"geometry":{"type":"Point","coordinates":[-113.7289,10.5703]}},{"type":"Feature","id":"68","properties":{"name":"顿顽","en":"Trials","pinyin":"Dun Wan","desig":"顿顽","rank":3,"display":[-130.4465,-33.8902,4.7]},"geometry":{"type":"Point","coordinates":[-130.4465,-33.8902]}},{"type":"Feature","id":"69","properties":{"name":"伐(附官)","en":"Send Armed Forces To Suppress (Vassal of Three Stars)","pinyin":"Fa","desig":"伐(附官)","rank":3,"display":[83.9494,-3.5559,4.7]},"geometry":{"type":"Point","coordinates":[83.9494,-3.5559]}},{"type":"Feature","id":"70","properties":{"name":"罚","en":"Punishment","pinyin":"Fa","desig":"罚","rank":3,"display":[-118.0065,-12.4514,8.2]},"geometry":{"type":"Point","coordinates":[-118.0065,-12.4514]}},{"type":"Feature","id":"71","properties":{"name":"飞鱼","en":"Flying Fish","pinyin":"Fei Yu","desig":"飞鱼","rank":3,"display":[121.3993,-69.3715,28.4]},"geometry":{"type":"Point","coordinates":[121.3993,-69.3715]}},{"type":"Feature","id":"72","properties":{"name":"坟墓(附官)","en":"Tomb (Vassal of Rooftop)","pinyin":"Fen Mu","desig":"坟墓(附官)","rank":3,"display":[-24.8574,-0.005,7.4]},"geometry":{"type":"Point","coordinates":[-24.8574,-0.005]}},{"type":"Feature","id":"73","properties":{"name":"𫓧钺","en":"Axe","pinyin":"Fu Yue","desig":"𫓧钺","rank":3,"display":[-3.3837,-18.4681,2.4]},"geometry":{"type":"Point","coordinates":[-3.3837,-18.4681]}},{"type":"Feature","id":"74","properties":{"name":"𫓧锧","en":"Sickle","pinyin":"Fu Zhi","desig":"𫓧锧","rank":3,"display":[26.201,-21.8023,7.6]},"geometry":{"type":"Point","coordinates":[26.201,-21.8023]}},{"type":"Feature","id":"75","properties":{"name":"扶筐","en":"Basket for Mulberry Leaves","pinyin":"Fu Kuang","desig":"扶筐","rank":3,"display":[-78.8963,56.3926,10.3]},"geometry":{"type":"Point","coordinates":[-78.8963,56.3926]}},{"type":"Feature","id":"76","properties":{"name":"附白","en":"White Patched Nearby","pinyin":"Fu Bai","desig":"附白","rank":3,"display":[49.7142,-74.6529,14.2]},"geometry":{"type":"Point","coordinates":[49.7142,-74.6529]}},{"type":"Feature","id":"77","properties":{"name":"附路","en":"Auxiliary Road","pinyin":"Fu Lu","desig":"附路","rank":3,"display":[9.2429,53.8969,0]},"geometry":{"type":"Point","coordinates":[9.2429,53.8969]}},{"type":"Feature","id":"78","properties":{"name":"傅说","en":"Fu Yue","pinyin":"Fu Yue","desig":"傅说","rank":3,"display":[-92.5355,-37.0433,0]},"geometry":{"type":"Point","coordinates":[-92.5355,-37.0433]}},{"type":"Feature","id":"79","properties":{"name":"盖屋","en":"Roofing","pinyin":"Gai Wu","desig":"盖屋","rank":3,"display":[-28.9869,-1.5308,1.2]},"geometry":{"type":"Point","coordinates":[-28.9869,-1.5308]}},{"type":"Feature","id":"80","properties":{"name":"杠(附官)","en":"Canopy Support (Vassal of Canopy of the Emperor)","pinyin":"Gang","desig":"杠(附官)","rank":3,"display":[40.1985,73.1899,34.8]},"geometry":{"type":"Point","coordinates":[40.1985,73.1899]}},{"type":"Feature","id":"81","properties":{"name":"阁道","en":"Flying Corridor","pinyin":"Ge Dao","desig":"阁道","rank":3,"display":[24.2239,57.8435,26.1]},"geometry":{"type":"Point","coordinates":[24.2239,57.8435]}},{"type":"Feature","id":"82","properties":{"name":"梗河","en":"Celestial Lance","pinyin":"Geng He","desig":"梗河","rank":3,"display":[-140.3979,28.7228,3.3]},"geometry":{"type":"Point","coordinates":[-140.3979,28.7228]}},{"type":"Feature","id":"83","properties":{"name":"勾陈","en":"Curved Array","pinyin":"Gou Chen","desig":"勾陈","rank":3,"display":[-43.0154,83.5293,11.5]},"geometry":{"type":"Point","coordinates":[-43.0154,83.5293]}},{"type":"Feature","id":"84","properties":{"name":"钩钤(附官)","en":"Lock (Vassal of Room)","pinyin":"Gou Qian","desig":"钩钤(附官)","rank":3,"display":[-118.3947,-20.3371,1.1]},"geometry":{"type":"Point","coordinates":[-118.3947,-20.3371]}},{"type":"Feature","id":"85","properties":{"name":"狗","en":"Dog","pinyin":"Gou","desig":"狗","rank":3,"display":[-67.2522,-24.6961,2.9]},"geometry":{"type":"Point","coordinates":[-67.2522,-24.6961]}},{"type":"Feature","id":"86","properties":{"name":"狗国","en":"Territory of Dog","pinyin":"Gou Guo","desig":"狗国","rank":3,"display":[-60.1879,-26.9528,1.7]},"geometry":{"type":"Point","coordinates":[-60.1879,-26.9528]}},{"type":"Feature","id":"87","properties":{"name":"贯索","en":"Coiled Thong","pinyin":"Guan Suo","desig":"贯索","rank":3,"display":[-123.841,29.686,8.4]},"geometry":{"type":"Point","coordinates":[-123.841,29.686]}},{"type":"Feature","id":"88","properties":{"name":"爟","en":"Beacon Fire","pinyin":"Guan","desig":"爟","rank":3,"display":[124.6144,26.8394,5.6]},"geometry":{"type":"Point","coordinates":[124.6144,26.8394]}},{"type":"Feature","id":"89","properties":{"name":"龟","en":"Tortoise","pinyin":"Gui","desig":"龟","rank":3,"display":[-102.3895,-56.9221,10.3]},"geometry":{"type":"Point","coordinates":[-102.3895,-56.9221]}},{"type":"Feature","id":"90","properties":{"name":"海山","en":"Sea and Mountain","pinyin":"Hai Shan","desig":"海山","rank":3,"display":[166.6857,-62.7341,19.4]},"geometry":{"type":"Point","coordinates":[166.6857,-62.7341]}},{"type":"Feature","id":"91","properties":{"name":"海石","en":"Sea Rock","pinyin":"Hai Shi","desig":"海石","rank":3,"display":[136.202,-62.1509,21.1]},"geometry":{"type":"Point","coordinates":[136.202,-62.1509]}},{"type":"Feature","id":"93","properties":{"name":"河鼓","en":"Drum at the River","pinyin":"He Gu","desig":"河鼓","rank":3,"display":[-62.3034,8.5101,4.2]},"geometry":{"type":"Point","coordinates":[-62.3034,8.5101]}},{"type":"Feature","id":"94","properties":{"name":"鹤","en":"Crane","pinyin":"He","desig":"鹤","rank":3,"display":[-19.2921,-48.6838,19.1]},"geometry":{"type":"Point","coordinates":[-19.2921,-48.6838]}},{"type":"Feature","id":"95","properties":{"name":"衡","en":"Railings","pinyin":"Heng","desig":"衡","rank":3,"display":[-150.5561,-41.8266,4.1]},"geometry":{"type":"Point","coordinates":[-150.5561,-41.8266]}},{"type":"Feature","id":"96","properties":{"name":"候","en":"Astrologer","pinyin":"Hou","desig":"候","rank":3,"display":[-96.2664,12.56,0]},"geometry":{"type":"Point","coordinates":[-96.2664,12.56]}},{"type":"Feature","id":"97","properties":{"name":"弧矢","en":"Bow and Arrow","pinyin":"Hu Shi","desig":"弧矢","rank":3,"display":[110.9387,-31.9529,17]},"geometry":{"type":"Point","coordinates":[110.9387,-31.9529]}},{"type":"Feature","id":"98","properties":{"name":"斛","en":"Dipper for Solids","pinyin":"Hu","desig":"斛","rank":3,"display":[-107.0625,8.7066,3]},"geometry":{"type":"Point","coordinates":[-107.0625,8.7066]}},{"type":"Feature","id":"99","properties":{"name":"虎贲","en":"Emperor's Bodyguard","pinyin":"Hu Ben","desig":"虎贲","rank":3,"display":[168.801,23.0955,0]},"geometry":{"type":"Point","coordinates":[168.801,23.0955]}},{"type":"Feature","id":"100","properties":{"name":"瓠瓜","en":"Good Gourd","pinyin":"Hu Gua","desig":"瓠瓜","rank":3,"display":[-49.7541,15.3597,2.8]},"geometry":{"type":"Point","coordinates":[-49.7541,15.3597]}},{"type":"Feature","id":"101","properties":{"name":"华盖","en":"Canopy of the Emperor","pinyin":"Hua Gai","desig":"华盖","rank":3,"display":[23.332,70.5415,11.3]},"geometry":{"type":"Point","coordinates":[23.332,70.5415]}},{"type":"Feature","id":"102","properties":{"name":"宦者","en":"Eunuch Official","pinyin":"Huan Zhe","desig":"宦者","rank":3,"display":[-103.0507,12.3386,3.5]},"geometry":{"type":"Point","coordinates":[-103.0507,12.3386]}},{"type":"Feature","id":"103","properties":{"name":"火鸟","en":"Firebird","pinyin":"Huo Niao","desig":"火鸟","rank":3,"display":[-352.3329,-43.3109,11]},"geometry":{"type":"Point","coordinates":[-352.3329,-43.3109]}},{"type":"Feature","id":"104","properties":{"name":"积尸(鬼宿)","en":"Cumulative Corpses","pinyin":"Ji Shi(Gui Xiu)","desig":"积尸(鬼宿)","rank":3,"display":[130.4587,19.8742,0]},"geometry":{"type":"Point","coordinates":[130.4587,19.8742]}},{"type":"Feature","id":"105","properties":{"name":"积尸(胃宿)","en":"Heap of Corpses","pinyin":"Ji Shi(Wei Xiu)","desig":"积尸(胃宿)","rank":3,"display":[44.6903,39.6627,0]},"geometry":{"type":"Point","coordinates":[44.6903,39.6627]}},{"type":"Feature","id":"106","properties":{"name":"积水(胃宿)","en":"Stored water","pinyin":"Ji Shui(Wei Xiu)","desig":"积水(胃宿)","rank":3,"display":[61.646,50.3513,0]},"geometry":{"type":"Point","coordinates":[61.646,50.3513]}},{"type":"Feature","id":"107","properties":{"name":"积薪","en":"Pile of Firewood","pinyin":"Ji Xin","desig":"积薪","rank":3,"display":[116.1119,24.398,0]},"geometry":{"type":"Point","coordinates":[116.1119,24.398]}},{"type":"Feature","id":"108","properties":{"name":"积卒","en":"Group of Soldiers","pinyin":"Ji Zu","desig":"积卒","rank":3,"display":[-119.1607,-37.5995,1.6]},"geometry":{"type":"Point","coordinates":[-119.1607,-37.5995]}},{"type":"Feature","id":"109","properties":{"name":"夹白","en":"White Patches Attached","pinyin":"Jia Bai","desig":"夹白","rank":3,"display":[71.0228,-64.8296,14.8]},"geometry":{"type":"Point","coordinates":[71.0228,-64.8296]}},{"type":"Feature","id":"110","properties":{"name":"建","en":"Establishment","pinyin":"Jian","desig":"建","rank":3,"display":[-72.5679,-18.8482,6]},"geometry":{"type":"Point","coordinates":[-72.5679,-18.8482]}},{"type":"Feature","id":"111","properties":{"name":"渐台","en":"Clepsydra Terrace","pinyin":"Jian Tai","desig":"渐台","rank":3,"display":[-75.3273,34.7941,4.3]},"geometry":{"type":"Point","coordinates":[-75.3273,34.7941]}},{"type":"Feature","id":"112","properties":{"name":"键闭","en":"Door Bolt","pinyin":"Jian Bi","desig":"键闭","rank":3,"display":[-117.0011,-19.4607,0]},"geometry":{"type":"Point","coordinates":[-117.0011,-19.4607]}},{"type":"Feature","id":"113","properties":{"name":"金鱼","en":"Goldfish","pinyin":"Jin Yu","desig":"金鱼","rank":3,"display":[78.0955,-60.165,28.2]},"geometry":{"type":"Point","coordinates":[78.0955,-60.165]}},{"type":"Feature","id":"114","properties":{"name":"进贤","en":"Recommending Virtuous Men","pinyin":"Jin Xian","desig":"进贤","rank":3,"display":[-165.0853,-3.8119,0]},"geometry":{"type":"Point","coordinates":[-165.0853,-3.8119]}},{"type":"Feature","id":"115","properties":{"name":"积水(井宿)","en":"Accumulated Water","pinyin":"Ji Shui(Jin Xiu)","desig":"积水(井宿)","rank":3,"display":[110.5109,36.7606,0]},"geometry":{"type":"Point","coordinates":[110.5109,36.7606]}},{"type":"Feature","id":"116","properties":{"name":"九坎","en":"Nine Water Wells","pinyin":"Jiu Kan","desig":"九坎","rank":3,"display":[-41.9429,-40.2694,0]},"geometry":{"type":"Point","coordinates":[-41.9429,-40.2694]}},{"type":"Feature","id":"117","properties":{"name":"九卿","en":"Nine Senior Officers","pinyin":"Jiu Qing","desig":"九卿","rank":3,"display":[-169.6569,8.9545,2.6]},"geometry":{"type":"Point","coordinates":[-169.6569,8.9545]}},{"type":"Feature","id":"118","properties":{"name":"九斿","en":"Imperial Military Flag","pinyin":"Jiu Liu","desig":"九斿","rank":3,"display":[72.4972,-10.8984,23.8]},"geometry":{"type":"Point","coordinates":[72.4972,-10.8984]}},{"type":"Feature","id":"119","properties":{"name":"九州殊口","en":"Interpreters of Nine Dialects","pinyin":"Jiu Zhou Shu Kou","desig":"九州殊口","rank":3,"display":[66.9943,-6.8044,8.1]},"geometry":{"type":"Point","coordinates":[66.9943,-6.8044]}},{"type":"Feature","id":"120","properties":{"name":"酒旗","en":"Banner of Wine Shop","pinyin":"Jiu Qi","desig":"酒旗","rank":3,"display":[144.0236,11.5392,5]},"geometry":{"type":"Point","coordinates":[144.0236,11.5392]}},{"type":"Feature","id":"121","properties":{"name":"臼","en":"Mortar","pinyin":"Jiu","desig":"臼","rank":3,"display":[-29.3168,27.0439,9.3]},"geometry":{"type":"Point","coordinates":[-29.3168,27.0439]}},{"type":"Feature","id":"122","properties":{"name":"卷舌","en":"Rolled Tongue","pinyin":"Juan She","desig":"卷舌","rank":3,"display":[57.6679,37.231,10.7]},"geometry":{"type":"Point","coordinates":[57.6679,37.231]}},{"type":"Feature","id":"123","properties":{"name":"军井","en":"Military Well","pinyin":"Jun Jing","desig":"军井","rank":3,"display":[79.0353,-12.523,1.9]},"geometry":{"type":"Point","coordinates":[79.0353,-12.523]}},{"type":"Feature","id":"124","properties":{"name":"军南门","en":"Southern Military Gate","pinyin":"Jun Nan Men","desig":"军南门","rank":3,"display":[17.3755,47.2418,0]},"geometry":{"type":"Point","coordinates":[17.3755,47.2418]}},{"type":"Feature","id":"125","properties":{"name":"军市","en":"Market for Soldiers","pinyin":"Jun Shi","desig":"军市","rank":3,"display":[99.7182,-21.0701,8.1]},"geometry":{"type":"Point","coordinates":[99.7182,-21.0701]}},{"type":"Feature","id":"126","properties":{"name":"糠","en":"Chaff","pinyin":"Kang","desig":"糠","rank":3,"display":[-98.1614,-29.867,0]},"geometry":{"type":"Point","coordinates":[-98.1614,-29.867]}},{"type":"Feature","id":"127","properties":{"name":"亢池","en":"Boats and Lake","pinyin":"Kang Chi","desig":"亢池","rank":3,"display":[-146.1904,14.6332,3.3]},"geometry":{"type":"Point","coordinates":[-146.1904,14.6332]}},{"type":"Feature","id":"128","properties":{"name":"孔雀","en":"Peafowl","pinyin":"Kong Que","desig":"孔雀","rank":3,"display":[-65.9779,-64.8228,55.2]},"geometry":{"type":"Point","coordinates":[-65.9779,-64.8228]}},{"type":"Feature","id":"129","properties":{"name":"哭","en":"Crying","pinyin":"Ku","desig":"哭","rank":3,"display":[-29.5099,-12.5584,4.3]},"geometry":{"type":"Point","coordinates":[-29.5099,-12.5584]}},{"type":"Feature","id":"130","properties":{"name":"库楼","en":"Arsenal","pinyin":"Ku Lou","desig":"库楼","rank":3,"display":[-157.517,-42.3407,32.8]},"geometry":{"type":"Point","coordinates":[-157.517,-42.3407]}},{"type":"Feature","id":"131","properties":{"name":"郎将","en":"Captain of the Bodyguards","pinyin":"Lang Jiang","desig":"郎将","rank":3,"display":[-167.0753,27.5407,0]},"geometry":{"type":"Point","coordinates":[-167.0753,27.5407]}},{"type":"Feature","id":"132","properties":{"name":"郎位","en":"Officers of the Imperial Guard","pinyin":"Lang Wei","desig":"郎位","rank":3,"display":[-174.5751,24.4053,8.7]},"geometry":{"type":"Point","coordinates":[-174.5751,24.4053]}},{"type":"Feature","id":"133","properties":{"name":"老人","en":"Old Man","pinyin":"Lao Ren","desig":"老人","rank":3,"display":[95.988,-52.6957,0]},"geometry":{"type":"Point","coordinates":[95.988,-52.6957]}},{"type":"Feature","id":"134","properties":{"name":"雷电","en":"Thunder and Lightning","pinyin":"Lei Dian","desig":"雷电","rank":3,"display":[-13.6729,11.085,11.9]},"geometry":{"type":"Point","coordinates":[-13.6729,11.085]}},{"type":"Feature","id":"135","properties":{"name":"垒壁阵","en":"Line of Ramparts","pinyin":"Lei Bi Zhen","desig":"垒壁阵","rank":3,"display":[-17.198000000000008,-11.2467,16.4]},"geometry":{"type":"Point","coordinates":[-17.198000000000008,-11.2467]}},{"type":"Feature","id":"136","properties":{"name":"离宫(附官)","en":"Resting Palace (Vassal of Encampment)","pinyin":"Li Gong","desig":"离宫(附官)","rank":3,"display":[-14.1079,26.8127,10.9]},"geometry":{"type":"Point","coordinates":[-14.1079,26.8127]}},{"type":"Feature","id":"137","properties":{"name":"离瑜","en":"Jade Ornament on Ladies' Wear","pinyin":"Li Yu","desig":"离瑜","rank":3,"display":[-39.125,-31.7055,2.8]},"geometry":{"type":"Point","coordinates":[-39.125,-31.7055]}},{"type":"Feature","id":"138","properties":{"name":"离珠","en":"Pearls on Ladies' Wear","pinyin":"Li Zhu","desig":"离珠","rank":3,"display":[-51.3669,-1.1995,3.4]},"geometry":{"type":"Point","coordinates":[-51.3669,-1.1995]}},{"type":"Feature","id":"139","properties":{"name":"砺石","en":"Whetstone","pinyin":"Li Shi","desig":"砺石","rank":3,"display":[63.6988,27.3153,3.9]},"geometry":{"type":"Point","coordinates":[63.6988,27.3153]}},{"type":"Feature","id":"140","properties":{"name":"列肆","en":"Jewel Market","pinyin":"Lie Si","desig":"列肆","rank":3,"display":[-113.3768,1.5065,2.2]},"geometry":{"type":"Point","coordinates":[-113.3768,1.5065]}},{"type":"Feature","id":"141","properties":{"name":"灵台","en":"Astronomical Observatory","pinyin":"Ling Tai","desig":"灵台","rank":3,"display":[165.6973,5.4768,3.7]},"geometry":{"type":"Point","coordinates":[165.6973,5.4768]}},{"type":"Feature","id":"142","properties":{"name":"六甲","en":"Six Jia","pinyin":"Liu Jia","desig":"六甲","rank":3,"display":[98.1412,79.6945,46.1]},"geometry":{"type":"Point","coordinates":[98.1412,79.6945]}},{"type":"Feature","id":"143","properties":{"name":"罗堰","en":"Network of Dykes","pinyin":"Luo Yan","desig":"罗堰","rank":3,"display":[-49.3202,-18.2344,6.6]},"geometry":{"type":"Point","coordinates":[-49.3202,-18.2344]}},{"type":"Feature","id":"144","properties":{"name":"马腹","en":"Horse's Abdomen","pinyin":"Ma Fu","desig":"马腹","rank":3,"display":[-154.4213,-58.0868,10.8]},"geometry":{"type":"Point","coordinates":[-154.4213,-58.0868]}},{"type":"Feature","id":"145","properties":{"name":"马尾","en":"Horse's Tail","pinyin":"Ma Wei","desig":"马尾","rank":3,"display":[-175.639,-51.5454,4.5]},"geometry":{"type":"Point","coordinates":[-175.639,-51.5454]}},{"type":"Feature","id":"146","properties":{"name":"蜜蜂","en":"Bee","pinyin":"Mi Feng","desig":"蜜蜂","rank":3,"display":[-168.1577,-70.1205,7.5]},"geometry":{"type":"Point","coordinates":[-168.1577,-70.1205]}},{"type":"Feature","id":"147","properties":{"name":"明堂","en":"The Hall of Glory","pinyin":"Ming Tang","desig":"明堂","rank":3,"display":[173.1108,-0.0736,5.9]},"geometry":{"type":"Point","coordinates":[173.1108,-0.0736]}},{"type":"Feature","id":"148","properties":{"name":"南船","en":"Southern Boat","pinyin":"Nan Chuan","desig":"南船","rank":3,"display":[149.5196,-65.6851,22.4]},"geometry":{"type":"Point","coordinates":[149.5196,-65.6851]}},{"type":"Feature","id":"149","properties":{"name":"南河","en":"South River","pinyin":"Nan He","desig":"南河","rank":3,"display":[113.1188,7.2506,4.1]},"geometry":{"type":"Point","coordinates":[113.1188,7.2506]}},{"type":"Feature","id":"151","properties":{"name":"南门","en":"Southern Gate","pinyin":"Nan Men","desig":"南门","rank":3,"display":[-147.563,-57.1502,14.9]},"geometry":{"type":"Point","coordinates":[-147.563,-57.1502]}},{"type":"Feature","id":"152","properties":{"name":"内厨","en":"Inner Kitchen","pinyin":"Nei Chu","desig":"内厨","rank":3,"display":[-167.1189,66.1144,2]},"geometry":{"type":"Point","coordinates":[-167.1189,66.1144]}},{"type":"Feature","id":"153","properties":{"name":"内阶","en":"Inner Steps","pinyin":"Nei Jie","desig":"内阶","rank":3,"display":[135.2241,60.6726,15.3]},"geometry":{"type":"Point","coordinates":[135.2241,60.6726]}},{"type":"Feature","id":"154","properties":{"name":"内平","en":"High Judge","pinyin":"Nei Ping","desig":"内平","rank":3,"display":[149.7273,33.3564,8.1]},"geometry":{"type":"Point","coordinates":[149.7273,33.3564]}},{"type":"Feature","id":"155","properties":{"name":"内屏","en":"Inner Screen","pinyin":"Nei Ping","desig":"内屏","rank":3,"display":[178.8116,7.6312,5]},"geometry":{"type":"Point","coordinates":[178.8116,7.6312]}},{"type":"Feature","id":"156","properties":{"name":"辇道","en":"Imperial Passageway","pinyin":"Nian Dao","desig":"辇道","rank":3,"display":[-69.7798,38.8369,12.8]},"geometry":{"type":"Point","coordinates":[-69.7798,38.8369]}},{"type":"Feature","id":"157","properties":{"name":"鸟喙","en":"Bird's Beak","pinyin":"Niao Hui","desig":"鸟喙","rank":3,"display":[-7.3781999999999925,-62.9183,5.3]},"geometry":{"type":"Point","coordinates":[-7.3781999999999925,-62.9183]}},{"type":"Feature","id":"158","properties":{"name":"农丈人","en":"Peasant","pinyin":"Nong Zhang Ren","desig":"农丈人","rank":3,"display":[-78.9193,-35.642,0]},"geometry":{"type":"Point","coordinates":[-78.9193,-35.642]}},{"type":"Feature","id":"159","properties":{"name":"女床","en":"Woman's Bed","pinyin":"Nü Chuang","desig":"女床","rank":3,"display":[-100.1588,37.0503,2.2]},"geometry":{"type":"Point","coordinates":[-100.1588,37.0503]}},{"type":"Feature","id":"160","properties":{"name":"女史","en":"Female Protocol","pinyin":"Nü Shi","desig":"女史","rank":3,"display":[-91.2035,72.0051,0]},"geometry":{"type":"Point","coordinates":[-91.2035,72.0051]}},{"type":"Feature","id":"161","properties":{"name":"霹雳","en":"Thunderbolt","pinyin":"Pi Li","desig":"霹雳","rank":3,"display":[-7.1014,5.0728,13.9]},"geometry":{"type":"Point","coordinates":[-7.1014,5.0728]}},{"type":"Feature","id":"162","properties":{"name":"平","en":"Judging","pinyin":"Ping","desig":"平","rank":3,"display":[-154.3383,-24.927,11.9]},"geometry":{"type":"Point","coordinates":[-154.3383,-24.927]}},{"type":"Feature","id":"163","properties":{"name":"平道","en":"Flat Road","pinyin":"Ping Dao","desig":"平道","rank":3,"display":[-158.5546,-7.121,7.9]},"geometry":{"type":"Point","coordinates":[-158.5546,-7.121]}},{"type":"Feature","id":"164","properties":{"name":"屏","en":"Screen","pinyin":"Ping","desig":"屏","rank":3,"display":[77.2991,-19.2882,6.2]},"geometry":{"type":"Point","coordinates":[77.2991,-19.2882]}},{"type":"Feature","id":"165","properties":{"name":"七公","en":"Seven Excellencies","pinyin":"Qi Gong","desig":"七公","rank":3,"display":[-120.7187,41.1216,20.8]},"geometry":{"type":"Point","coordinates":[-120.7187,41.1216]}},{"type":"Feature","id":"167","properties":{"name":"骑官","en":"Imperial Guards","pinyin":"Qi Guan","desig":"骑官","rank":3,"display":[-132.8662,-44.2614,13.3]},"geometry":{"type":"Point","coordinates":[-132.8662,-44.2614]}},{"type":"Feature","id":"168","properties":{"name":"骑阵将军","en":"Chariots and Cavalry General","pinyin":"Qi Zhen Jiang Jun","desig":"骑阵将军","rank":3,"display":[-132.0164,-48.7378,0]},"geometry":{"type":"Point","coordinates":[-132.0164,-48.7378]}},{"type":"Feature","id":"169","properties":{"name":"泣","en":"Weeping","pinyin":"Qi","desig":"泣","rank":3,"display":[-25.3709,-7.8022,0.8]},"geometry":{"type":"Point","coordinates":[-25.3709,-7.8022]}},{"type":"Feature","id":"171","properties":{"name":"青丘","en":"Green Hill","pinyin":"Qing Qiu","desig":"青丘","rank":3,"display":[175.9928,-31.6109,6.3]},"geometry":{"type":"Point","coordinates":[175.9928,-31.6109]}},{"type":"Feature","id":"172","properties":{"name":"阙丘","en":"Palace Gate","pinyin":"Que Qiu","desig":"阙丘","rank":3,"display":[104.9068,1.0552,5.9]},"geometry":{"type":"Point","coordinates":[104.9068,1.0552]}},{"type":"Feature","id":"173","properties":{"name":"人","en":"Humans","pinyin":"Ren","desig":"人","rank":3,"display":[-36.4801,20.4944,6.3]},"geometry":{"type":"Point","coordinates":[-36.4801,20.4944]}},{"type":"Feature","id":"174","properties":{"name":"日","en":"Solar Star","pinyin":"Ri","desig":"日","rank":3,"display":[-124.5133,-19.6788,0]},"geometry":{"type":"Point","coordinates":[-124.5133,-19.6788]}},{"type":"Feature","id":"175","properties":{"name":"三公(太微垣)","en":"Three Excellencies (In Supreme Palace Enclosure)","pinyin":"San Gong(Tai Wei Yuan)","desig":"三公(太微垣)","rank":3,"display":[-168.7739,5.1897,3.2]},"geometry":{"type":"Point","coordinates":[-168.7739,5.1897]}},{"type":"Feature","id":"176","properties":{"name":"三公(紫微垣)","en":"Three Excellencies (In Purple Forbidden Enclosure)","pinyin":"San gong(Zi Wei Yuan)","desig":"三公(紫微垣)","rank":3,"display":[-158.413,49.3491,4.1]},"geometry":{"type":"Point","coordinates":[-158.413,49.3491]}},{"type":"Feature","id":"177","properties":{"name":"三角形","en":"Triangle","pinyin":"San Jiao Xing","desig":"三角形","rank":3,"display":[-119.0532,-66.2292,22.4]},"geometry":{"type":"Point","coordinates":[-119.0532,-66.2292]}},{"type":"Feature","id":"178","properties":{"name":"三师","en":"Three Top Instructors","pinyin":"San Shi","desig":"三师","rank":3,"display":[136.3671,67.2514,1.5]},"geometry":{"type":"Point","coordinates":[136.3671,67.2514]}},{"type":"Feature","id":"179","properties":{"name":"三台","en":"Three Steps","pinyin":"San Tai","desig":"三台","rank":3,"display":[152.2108,39.7863,34.8]},"geometry":{"type":"Point","coordinates":[152.2108,39.7863]}},{"type":"Feature","id":"180","properties":{"name":"尚书","en":"Royal Secretary","pinyin":"Shang Shu","desig":"尚书","rank":3,"display":[-105.7779,66.8492,17.5]},"geometry":{"type":"Point","coordinates":[-105.7779,66.8492]}},{"type":"Feature","id":"181","properties":{"name":"少微","en":"Junior Officers","pinyin":"Shao Wei","desig":"少微","rank":3,"display":[163.8122,22.2143,6.6]},"geometry":{"type":"Point","coordinates":[163.8122,22.2143]}},{"type":"Feature","id":"182","properties":{"name":"蛇腹","en":"Snake's Abdomen","pinyin":"She Fu","desig":"蛇腹","rank":3,"display":[35.06,-68.138,12.7]},"geometry":{"type":"Point","coordinates":[35.06,-68.138]}},{"type":"Feature","id":"183","properties":{"name":"蛇首","en":"Snake's Head","pinyin":"She Shou","desig":"蛇首","rank":3,"display":[42.8712,-63.1884,26.4]},"geometry":{"type":"Point","coordinates":[42.8712,-63.1884]}},{"type":"Feature","id":"184","properties":{"name":"蛇尾","en":"Snake's Tail","pinyin":"She Wei","desig":"蛇尾","rank":3,"display":[-18.691399999999987,-77.2677,0.5]},"geometry":{"type":"Point","coordinates":[-18.691399999999987,-77.2677]}},{"type":"Feature","id":"185","properties":{"name":"神宫(附官)","en":"Changing Room (Vassal of Tail)","pinyin":"Shen Gong","desig":"神宫(附官)","rank":3,"display":[-106.4923,-41.8064,0]},"geometry":{"type":"Point","coordinates":[-106.4923,-41.8064]}},{"type":"Feature","id":"186","properties":{"name":"十二国","en":"Twelve States","pinyin":"Shi Er Guo","desig":"十二国","rank":3,"display":[-40.5276,-18.6956,8.5]},"geometry":{"type":"Point","coordinates":[-40.5276,-18.6956]}},{"type":"Feature","id":"187","properties":{"name":"十字架","en":"Cross","pinyin":"Shi Zi Jia","desig":"十字架","rank":3,"display":[-172.1417,-60.1061,8.1]},"geometry":{"type":"Point","coordinates":[-172.1417,-60.1061]}},{"type":"Feature","id":"188","properties":{"name":"屎","en":"Excrement","pinyin":"Shi","desig":"屎","rank":3,"display":[86.4996,-32.3064,0]},"geometry":{"type":"Point","coordinates":[86.4996,-32.3064]}},{"type":"Feature","id":"189","properties":{"name":"市楼","en":"Municipal Office","pinyin":"Shi Lou","desig":"市楼","rank":3,"display":[-94.5113,-9.9774,10.6]},"geometry":{"type":"Point","coordinates":[-94.5113,-9.9774]}},{"type":"Feature","id":"190","properties":{"name":"势","en":"Eunuch","pinyin":"Shi","desig":"势","rank":3,"display":[160.646,32.8355,5.4]},"geometry":{"type":"Point","coordinates":[160.646,32.8355]}},{"type":"Feature","id":"191","properties":{"name":"水府","en":"Official for Irrigation","pinyin":"Shui Fu","desig":"水府","rank":3,"display":[92.8739,15.176,2]},"geometry":{"type":"Point","coordinates":[92.8739,15.176]}},{"type":"Feature","id":"192","properties":{"name":"水委","en":"Crooked Running Water","pinyin":"Shui Wei","desig":"水委","rank":3,"display":[17.6335,-56.3544,13.6]},"geometry":{"type":"Point","coordinates":[17.6335,-56.3544]}},{"type":"Feature","id":"193","properties":{"name":"水位","en":"Water Level","pinyin":"Shui Wei","desig":"水位","rank":3,"display":[117.7511,14.2081,10.6]},"geometry":{"type":"Point","coordinates":[117.7511,14.2081]}},{"type":"Feature","id":"194","properties":{"name":"司非","en":"Deified Judge of Right and Wrong","pinyin":"Si Fei","desig":"司非","rank":3,"display":[-41.8972,10.0693,1]},"geometry":{"type":"Point","coordinates":[-41.8972,10.0693]}},{"type":"Feature","id":"195","properties":{"name":"司怪","en":"Deity in Charge of Monsters","pinyin":"Si Guai","desig":"司怪","rank":3,"display":[89.813,23.0462,5.8]},"geometry":{"type":"Point","coordinates":[89.813,23.0462]}},{"type":"Feature","id":"196","properties":{"name":"司禄","en":"Deified Judge of Rank","pinyin":"Si Lu","desig":"司禄","rank":3,"display":[-34.1516,2.4649,1.9]},"geometry":{"type":"Point","coordinates":[-34.1516,2.4649]}},{"type":"Feature","id":"197","properties":{"name":"司命","en":"Deified Judge of Life","pinyin":"Si Ming","desig":"司命","rank":3,"display":[-34.7883,0.6171,1.3]},"geometry":{"type":"Point","coordinates":[-34.7883,0.6171]}},{"type":"Feature","id":"198","properties":{"name":"司危","en":"Deified Judge of Disaster and Good Fortune","pinyin":"Si wei","desig":"司危","rank":3,"display":[-39.5032,7.0828,0.5]},"geometry":{"type":"Point","coordinates":[-39.5032,7.0828]}},{"type":"Feature","id":"199","properties":{"name":"四渎","en":"Four Channels","pinyin":"Si Du","desig":"四渎","rank":3,"display":[100.9253,7.7724,10]},"geometry":{"type":"Point","coordinates":[100.9253,7.7724]}},{"type":"Feature","id":"200","properties":{"name":"四辅","en":"Four Advisors","pinyin":"Si Fu","desig":"四辅","rank":3,"display":[169.27,84.0729,23.7]},"geometry":{"type":"Point","coordinates":[169.27,84.0729]}},{"type":"Feature","id":"201","properties":{"name":"孙","en":"Grandson","pinyin":"Sun","desig":"孙","rank":3,"display":[93.01,-36.1967,2.3]},"geometry":{"type":"Point","coordinates":[93.01,-36.1967]}},{"type":"Feature","id":"202","properties":{"name":"太阳守","en":"Guard of the Sun","pinyin":"Tai Yang Shou","desig":"太阳守","rank":3,"display":[176.5126,47.7794,0]},"geometry":{"type":"Point","coordinates":[176.5126,47.7794]}},{"type":"Feature","id":"203","properties":{"name":"太乙","en":"First Great One","pinyin":"Tai Yi","desig":"太乙","rank":3,"display":[-154.6254,64.8224,0]},"geometry":{"type":"Point","coordinates":[-154.6254,64.8224]}},{"type":"Feature","id":"204","properties":{"name":"太子","en":"Crown Prince","pinyin":"Tai Zi","desig":"太子","rank":3,"display":[176.9964,20.2189,0]},"geometry":{"type":"Point","coordinates":[176.9964,20.2189]}},{"type":"Feature","id":"205","properties":{"name":"太尊","en":"Royals","pinyin":"Tai Zun","desig":"太尊","rank":3,"display":[167.4159,44.4985,0]},"geometry":{"type":"Point","coordinates":[167.4159,44.4985]}},{"type":"Feature","id":"206","properties":{"name":"螣蛇","en":"Flying Serpent","pinyin":"Teng She","desig":"螣蛇","rank":3,"display":[-20.4946,50.96,40.5]},"geometry":{"type":"Point","coordinates":[-20.4946,50.96]}},{"type":"Feature","id":"207","properties":{"name":"天阿","en":"Celestial Concave","pinyin":"Tian E","desig":"天阿","rank":3,"display":[50.5496,27.6076,0]},"geometry":{"type":"Point","coordinates":[50.5496,27.6076]}},{"type":"Feature","id":"208","properties":{"name":"天棓","en":"Celestial Flail","pinyin":"Tian Bang","desig":"天棓","rank":3,"display":[-94.1201,51.4395,10.9]},"geometry":{"type":"Point","coordinates":[-94.1201,51.4395]}},{"type":"Feature","id":"209","properties":{"name":"天弁","en":"Market Officer","pinyin":"Tian Bian","desig":"天弁","rank":3,"display":[-77.318,-6.3757,7.8]},"geometry":{"type":"Point","coordinates":[-77.318,-6.3757]}},{"type":"Feature","id":"210","properties":{"name":"天仓","en":"Square Celestial Granary","pinyin":"Tian Cang","desig":"天仓","rank":3,"display":[17.3998,-14.5039,25.1]},"geometry":{"type":"Point","coordinates":[17.3998,-14.5039]}},{"type":"Feature","id":"211","properties":{"name":"天谗","en":"Celestial Slander","pinyin":"Tian Chan","desig":"天谗","rank":3,"display":[57.3862,33.0914,0]},"geometry":{"type":"Point","coordinates":[57.3862,33.0914]}},{"type":"Feature","id":"212","properties":{"name":"天厨","en":"Celestial Kitchen","pinyin":"Tian Chu","desig":"天厨","rank":3,"display":[-65.5783,67.5445,12.6]},"geometry":{"type":"Point","coordinates":[-65.5783,67.5445]}},{"type":"Feature","id":"213","properties":{"name":"天船","en":"Celestial Boat","pinyin":"Tian Chuan","desig":"天船","rank":3,"display":[53.7397,51.804,22.1]},"geometry":{"type":"Point","coordinates":[53.7397,51.804]}},{"type":"Feature","id":"214","properties":{"name":"天床","en":"Celestial Bed","pinyin":"Tian Chuang","desig":"天床","rank":3,"display":[-131.9388,67.2829,30.1]},"geometry":{"type":"Point","coordinates":[-131.9388,67.2829]}},{"type":"Feature","id":"215","properties":{"name":"天大将军","en":"Great General of Heaven","pinyin":"Tian Da Jiang Jun","desig":"天大将军","rank":3,"display":[28.427,42.268,16.8]},"geometry":{"type":"Point","coordinates":[28.427,42.268]}},{"type":"Feature","id":"216","properties":{"name":"天桴","en":"Celestial Drumstick","pinyin":"Tian Fu","desig":"天桴","rank":3,"display":[-59.5278,0.0921,4.7]},"geometry":{"type":"Point","coordinates":[-59.5278,0.0921]}},{"type":"Feature","id":"217","properties":{"name":"天辐","en":"Celestial Spokes","pinyin":"Tian Fu","desig":"天辐","rank":3,"display":[-125.54,-28.9564,1.6]},"geometry":{"type":"Point","coordinates":[-125.54,-28.9564]}},{"type":"Feature","id":"218","properties":{"name":"天纲","en":"Materials for Making Tents","pinyin":"Tian Gang","desig":"天纲","rank":3,"display":[-16.0129,-32.5396,0]},"geometry":{"type":"Point","coordinates":[-16.0129,-32.5396]}},{"type":"Feature","id":"219","properties":{"name":"天高","en":"Celestial High Terrace","pinyin":"Tian Gao","desig":"天高","rank":3,"display":[76.3314,20.4682,7]},"geometry":{"type":"Point","coordinates":[76.3314,20.4682]}},{"type":"Feature","id":"220","properties":{"name":"天钩","en":"Celestial Hook","pinyin":"Tian Gou","desig":"天钩","rank":3,"display":[-33.3999,64.9751,46.1]},"geometry":{"type":"Point","coordinates":[-33.3999,64.9751]}},{"type":"Feature","id":"221","properties":{"name":"天狗","en":"Celestial Dog","pinyin":"Tian Gou","desig":"天狗","rank":3,"display":[131.6463,-35.3355,15.3]},"geometry":{"type":"Point","coordinates":[131.6463,-35.3355]}},{"type":"Feature","id":"222","properties":{"name":"天关","en":"Celestial Pass","pinyin":"Tian Guan","desig":"天关","rank":3,"display":[84.4112,21.1425,0]},"geometry":{"type":"Point","coordinates":[84.4112,21.1425]}},{"type":"Feature","id":"223","properties":{"name":"天皇大帝","en":"Great Emperor of Heaven","pinyin":"Tian Huang Da Di","desig":"天皇大帝","rank":3,"display":[-26.7058,86.108,0]},"geometry":{"type":"Point","coordinates":[-26.7058,86.108]}},{"type":"Feature","id":"224","properties":{"name":"天潢","en":"Celestial Pier","pinyin":"Tian Huang","desig":"天潢","rank":3,"display":[80.1346,35.5861,5.8]},"geometry":{"type":"Point","coordinates":[80.1346,35.5861]}},{"type":"Feature","id":"225","properties":{"name":"天溷","en":"Celestial Pigsty","pinyin":"Tian Hun","desig":"天溷","rank":3,"display":[12.5269,-10.8107,4.1]},"geometry":{"type":"Point","coordinates":[12.5269,-10.8107]}},{"type":"Feature","id":"226","properties":{"name":"天鸡","en":"Celestial Cock","pinyin":"Tian Ji","desig":"天鸡","rank":3,"display":[-63.8899,-17.9425,3.6]},"geometry":{"type":"Point","coordinates":[-63.8899,-17.9425]}},{"type":"Feature","id":"227","properties":{"name":"天记","en":"Judge for Estimating the Age of Animals","pinyin":"Tian Ji","desig":"天记","rank":3,"display":[136.999,-43.4326,0]},"geometry":{"type":"Point","coordinates":[136.999,-43.4326]}},{"type":"Feature","id":"228","properties":{"name":"天纪","en":"Celestial Discipline","pinyin":"Tian Ji","desig":"天纪","rank":3,"display":[-102.7062,34.0179,23.5]},"geometry":{"type":"Point","coordinates":[-102.7062,34.0179]}},{"type":"Feature","id":"229","properties":{"name":"天江","en":"Celestial River","pinyin":"Tian Jiang","desig":"天江","rank":3,"display":[-99.924,-25.5798,3]},"geometry":{"type":"Point","coordinates":[-99.924,-25.5798]}},{"type":"Feature","id":"230","properties":{"name":"天街","en":"Celestial Street","pinyin":"Tian Jie","desig":"天街","rank":3,"display":[65.3348,21.3893,2]},"geometry":{"type":"Point","coordinates":[65.3348,21.3893]}},{"type":"Feature","id":"231","properties":{"name":"天节","en":"Celestial Tally","pinyin":"Tian Jie","desig":"天节","rank":3,"display":[67.5023,12.1527,5.4]},"geometry":{"type":"Point","coordinates":[67.5023,12.1527]}},{"type":"Feature","id":"232","properties":{"name":"天津","en":"Celestial Ford","pinyin":"Tian Jin","desig":"天津","rank":3,"display":[-52.1384,38.5213,23.2]},"geometry":{"type":"Point","coordinates":[-52.1384,38.5213]}},{"type":"Feature","id":"233","properties":{"name":"天厩","en":"Celestial Stable","pinyin":"Tian Jiu","desig":"天厩","rank":3,"display":[4.7766,37.7334,1.9]},"geometry":{"type":"Point","coordinates":[4.7766,37.7334]}},{"type":"Feature","id":"234","properties":{"name":"天狼","en":"Celestial Wolf","pinyin":"Tian Lang","desig":"天狼","rank":3,"display":[101.2872,-16.7161,0]},"geometry":{"type":"Point","coordinates":[101.2872,-16.7161]}},{"type":"Feature","id":"235","properties":{"name":"天牢","en":"Celestial Prison","pinyin":"Tian Lao","desig":"天牢","rank":3,"display":[168.0623,41.3474,9.1]},"geometry":{"type":"Point","coordinates":[168.0623,41.3474]}},{"type":"Feature","id":"236","properties":{"name":"天垒城","en":"Celestial Ramparts","pinyin":"Tian Lei Cheng","desig":"天垒城","rank":3,"display":[-39.1731,-11.5128,11.7]},"geometry":{"type":"Point","coordinates":[-39.1731,-11.5128]}},{"type":"Feature","id":"237","properties":{"name":"天理","en":"Judge for Nobility","pinyin":"Tian Li","desig":"天理","rank":3,"display":[174.1505,58.6999,10.1]},"geometry":{"type":"Point","coordinates":[174.1505,58.6999]}},{"type":"Feature","id":"238","properties":{"name":"天廪","en":"Celestial Foodstuff","pinyin":"Tian Lin","desig":"天廪","rank":3,"display":[51.9608,10.9828,3.9]},"geometry":{"type":"Point","coordinates":[51.9608,10.9828]}},{"type":"Feature","id":"239","properties":{"name":"天门","en":"Celestial Gate","pinyin":"Tian Men","desig":"天门","rank":3,"display":[-160.061,-16.0861,3.8]},"geometry":{"type":"Point","coordinates":[-160.061,-16.0861]}},{"type":"Feature","id":"240","properties":{"name":"天钱","en":"Celestial Money","pinyin":"Tian Qian","desig":"天钱","rank":3,"display":[-30.6133,-31.4711,6.3]},"geometry":{"type":"Point","coordinates":[-30.6133,-31.4711]}},{"type":"Feature","id":"241","properties":{"name":"天枪","en":"Celestial Spear","pinyin":"Tian Qiang","desig":"天枪","rank":3,"display":[-145.1674,51.609,2.9]},"geometry":{"type":"Point","coordinates":[-145.1674,51.609]}},{"type":"Feature","id":"242","properties":{"name":"天囷","en":"Circular Celestial Granary","pinyin":"Tian Qun","desig":"天囷","rank":3,"display":[41.5888,3.8603,17.4]},"geometry":{"type":"Point","coordinates":[41.5888,3.8603]}},{"type":"Feature","id":"243","properties":{"name":"天乳","en":"Celestial Milk","pinyin":"Tian Ru","desig":"天乳","rank":3,"display":[-122.595,-3.4302,0]},"geometry":{"type":"Point","coordinates":[-122.595,-3.4302]}},{"type":"Feature","id":"244","properties":{"name":"天社","en":"Celestial Earth God's Temple","pinyin":"Tian She","desig":"天社","rank":3,"display":[132.5943,-51.8415,20.4]},"geometry":{"type":"Point","coordinates":[132.5943,-51.8415]}},{"type":"Feature","id":"245","properties":{"name":"天田(角宿)","en":"Celestial Farmland (In Horn Mansion)","pinyin":"Tian Tian(Jiao Xiu)","desig":"天田(角宿)","rank":3,"display":[-153.0277,2.6018,6.9]},"geometry":{"type":"Point","coordinates":[-153.0277,2.6018]}},{"type":"Feature","id":"246","properties":{"name":"天田(牛宿)","en":"Celestial Farmland (In Ox Mansion)","pinyin":"Tian Tian(Niu Xiu)","desig":"天田(牛宿)","rank":3,"display":[-45.077,-26.3126,6.8]},"geometry":{"type":"Point","coordinates":[-45.077,-26.3126]}},{"type":"Feature","id":"247","properties":{"name":"天相","en":"Celestial Premier","pinyin":"Tian Xiang","desig":"天相","rank":3,"display":[153.4695,-8.2385,1.9]},"geometry":{"type":"Point","coordinates":[153.4695,-8.2385]}},{"type":"Feature","id":"248","properties":{"name":"天乙","en":"Celestial Great One","pinyin":"Tian Yi","desig":"天乙","rank":3,"display":[-152.1419,64.7233,0]},"geometry":{"type":"Point","coordinates":[-152.1419,64.7233]}},{"type":"Feature","id":"249","properties":{"name":"天阴","en":"Celestial Yin Force","pinyin":"Tian Yin","desig":"天阴","rank":3,"display":[50.0091,21.2653,4.2]},"geometry":{"type":"Point","coordinates":[50.0091,21.2653]}},{"type":"Feature","id":"250","properties":{"name":"天庾","en":"Ricks of Grain","pinyin":"Tian Yu","desig":"天庾","rank":3,"display":[36.6976,-30.3191,11.1]},"geometry":{"type":"Point","coordinates":[36.6976,-30.3191]}},{"type":"Feature","id":"251","properties":{"name":"天渊","en":"Celestial Spring","pinyin":"Tian Yuan","desig":"天渊","rank":3,"display":[-69.1844,-42.7078,4.2]},"geometry":{"type":"Point","coordinates":[-69.1844,-42.7078]}},{"type":"Feature","id":"252","properties":{"name":"天园","en":"Celestial Orchard","pinyin":"Tian Yuan","desig":"天园","rank":3,"display":[45.8503,-40.6877,46.1]},"geometry":{"type":"Point","coordinates":[45.8503,-40.6877]}},{"type":"Feature","id":"253","properties":{"name":"天苑","en":"Celestial Meadows","pinyin":"Tian Yuan","desig":"天苑","rank":3,"display":[50.5059,-16.7159,19]},"geometry":{"type":"Point","coordinates":[50.5059,-16.7159]}},{"type":"Feature","id":"254","properties":{"name":"天籥","en":"Celestial Keyhole","pinyin":"Tian Yue","desig":"天籥","rank":3,"display":[-94.2104,-24.757,6.1]},"geometry":{"type":"Point","coordinates":[-94.2104,-24.757]}},{"type":"Feature","id":"255","properties":{"name":"天柱","en":"Celestial Pillar","pinyin":"Tian Zhu","desig":"天柱","rank":3,"display":[-66.8066,79.5063,46.4]},"geometry":{"type":"Point","coordinates":[-66.8066,79.5063]}},{"type":"Feature","id":"256","properties":{"name":"天樽","en":"Celestial Wine Cup","pinyin":"Tian Zun","desig":"天樽","rank":3,"display":[108.2361,23.5164,5.3]},"geometry":{"type":"Point","coordinates":[108.2361,23.5164]}},{"type":"Feature","id":"257","properties":{"name":"屠肆","en":"Butcher's Shops","pinyin":"Tu Si","desig":"屠肆","rank":3,"display":[-86.2838,21.9944,4.4]},"geometry":{"type":"Point","coordinates":[-86.2838,21.9944]}},{"type":"Feature","id":"258","properties":{"name":"土公","en":"Official for Earthworks and Buildings","pinyin":"Tu Gong","desig":"土公","rank":3,"display":[3.5242,8.0883,5.8]},"geometry":{"type":"Point","coordinates":[3.5242,8.0883]}},{"type":"Feature","id":"259","properties":{"name":"土公吏","en":"Official for Materials Supply","pinyin":"Tu Gong Li","desig":"土公吏","rank":3,"display":[-23.6686,10.6671,3.1]},"geometry":{"type":"Point","coordinates":[-23.6686,10.6671]}},{"type":"Feature","id":"260","properties":{"name":"土司空","en":"Master of Constructions","pinyin":"Tu Si Kong","desig":"土司空","rank":3,"display":[10.8974,-17.9866,0]},"geometry":{"type":"Point","coordinates":[10.8974,-17.9866]}},{"type":"Feature","id":"261","properties":{"name":"外厨","en":"Outer Kitchen","pinyin":"Wai Chu","desig":"外厨","rank":3,"display":[129.4769,-4.5653,5.7]},"geometry":{"type":"Point","coordinates":[129.4769,-4.5653]}},{"type":"Feature","id":"262","properties":{"name":"外屏","en":"Outer Fence","pinyin":"Wai Ping","desig":"外屏","rank":3,"display":[21.3412,5.327,18.3]},"geometry":{"type":"Point","coordinates":[21.3412,5.327]}},{"type":"Feature","id":"263","properties":{"name":"王良","en":"Wang Liang","pinyin":"Wang Liang","desig":"王良","rank":3,"display":[7.2854,58.7271,10]},"geometry":{"type":"Point","coordinates":[7.2854,58.7271]}},{"type":"Feature","id":"265","properties":{"name":"文昌","en":"Administrative Center","pinyin":"Wen Chang","desig":"文昌","rank":3,"display":[142.6221,55.3217,10.8]},"geometry":{"type":"Point","coordinates":[142.6221,55.3217]}},{"type":"Feature","id":"266","properties":{"name":"五车","en":"Five Chariots","pinyin":"Wu Che","desig":"五车","rank":3,"display":[82.0894,37.3028,17.4]},"geometry":{"type":"Point","coordinates":[82.0894,37.3028]}},{"type":"Feature","id":"267","properties":{"name":"五帝内座","en":"Interior Seats of the Five Emperors","pinyin":"Wu Di Nei Zuo","desig":"五帝内座","rank":3,"display":[46.8962,79.3649,31.2]},"geometry":{"type":"Point","coordinates":[46.8962,79.3649]}},{"type":"Feature","id":"268","properties":{"name":"五帝座","en":"Seats of the Five Emperors","pinyin":"Wu Di Zuo","desig":"五帝座","rank":3,"display":[177.6083,14.261,4]},"geometry":{"type":"Point","coordinates":[177.6083,14.261]}},{"type":"Feature","id":"269","properties":{"name":"五诸侯(井宿)","en":"Five Feudal Kings","pinyin":"Wu Zhu Hou(JingXiu)","desig":"五诸侯(井宿)","rank":3,"display":[110.7857,30.3636,15.2]},"geometry":{"type":"Point","coordinates":[110.7857,30.3636]}},{"type":"Feature","id":"270","properties":{"name":"五诸侯(太微垣)","en":"Five Lords","pinyin":"Wu Zhu Hou(Tai Wei Yuan)","desig":"五诸侯(太微垣)","rank":3,"display":[-169.7053,18.0263,12.6]},"geometry":{"type":"Point","coordinates":[-169.7053,18.0263]}},{"type":"Feature","id":"271","properties":{"name":"西咸","en":"Western Door","pinyin":"Xi Xian","desig":"西咸","rank":3,"display":[-121.44579999999999,-14.0514,5.4]},"geometry":{"type":"Point","coordinates":[-121.44579999999999,-14.0514]}},{"type":"Feature","id":"272","properties":{"name":"奚仲","en":"Xi Zhong","pinyin":"Xi Zhong","desig":"奚仲","rank":3,"display":[-67.6352,51.7948,6.2]},"geometry":{"type":"Point","coordinates":[-67.6352,51.7948]}},{"type":"Feature","id":"273","properties":{"name":"咸池","en":"Pool of Harmony","pinyin":"Xian Chi","desig":"咸池","rank":3,"display":[81.2366,40.8153,2.9]},"geometry":{"type":"Point","coordinates":[81.2366,40.8153]}},{"type":"Feature","id":"274","properties":{"name":"相","en":"Prime Minister","pinyin":"Xiang","desig":"相","rank":3,"display":[-173.9938,51.5623,0]},"geometry":{"type":"Point","coordinates":[-173.9938,51.5623]}},{"type":"Feature","id":"275","properties":{"name":"小斗","en":"Little Dipper","pinyin":"Xiao Dou","desig":"小斗","rank":3,"display":[149.3022,-79.2129,70.6]},"geometry":{"type":"Point","coordinates":[149.3022,-79.2129]}},{"type":"Feature","id":"276","properties":{"name":"幸臣","en":"Officer of Honour","pinyin":"Xing Chen","desig":"幸臣","rank":3,"display":[-179.9804,19.4194,0]},"geometry":{"type":"Point","coordinates":[-179.9804,19.4194]}},{"type":"Feature","id":"277","properties":{"name":"虚梁","en":"Temple","pinyin":"Xu Liang","desig":"虚梁","rank":3,"display":[-20.7006,-4.8077,10]},"geometry":{"type":"Point","coordinates":[-20.7006,-4.8077]}},{"type":"Feature","id":"278","properties":{"name":"轩辕","en":"Xuanyuan","pinyin":"Xuan Yuan","desig":"轩辕","rank":3,"display":[146.6814,25.5448,32.5]},"geometry":{"type":"Point","coordinates":[146.6814,25.5448]}},{"type":"Feature","id":"279","properties":{"name":"玄戈","en":"Sombre Lance","pinyin":"Xuan Ge","desig":"玄戈","rank":3,"display":[-145.9041,46.0883,0]},"geometry":{"type":"Point","coordinates":[-145.9041,46.0883]}},{"type":"Feature","id":"280","properties":{"name":"钺(附官)","en":"Battle Axe (Vassal of Well)","pinyin":"Yue","desig":"钺(附官)","rank":3,"display":[93.7194,22.5068,0]},"geometry":{"type":"Point","coordinates":[93.7194,22.5068]}},{"type":"Feature","id":"281","properties":{"name":"阳门","en":"Gate of Yang","pinyin":"Yang Men","desig":"阳门","rank":3,"display":[-139.2978,-36.4836,2.6]},"geometry":{"type":"Point","coordinates":[-139.2978,-36.4836]}},{"type":"Feature","id":"282","properties":{"name":"野鸡","en":"Wild Cockerel","pinyin":"Ye Ji","desig":"野鸡","rank":3,"display":[99.171,-19.2559,0]},"geometry":{"type":"Point","coordinates":[99.171,-19.2559]}},{"type":"Feature","id":"283","properties":{"name":"谒者","en":"Usher to the Court","pinyin":"Ye Zhe","desig":"谒者","rank":3,"display":[-174.9126,3.3126,0]},"geometry":{"type":"Point","coordinates":[-174.9126,3.3126]}},{"type":"Feature","id":"284","properties":{"name":"异雀","en":"Exotic Bird","pinyin":"Yi Que","desig":"异雀","rank":3,"display":[-122.4588,-75.7193,46]},"geometry":{"type":"Point","coordinates":[-122.4588,-75.7193]}},{"type":"Feature","id":"285","properties":{"name":"阴德","en":"Hidden Virtue","pinyin":"Yin De","desig":"阴德","rank":3,"display":[158.6644,74.7737,1.9]},"geometry":{"type":"Point","coordinates":[158.6644,74.7737]}},{"type":"Feature","id":"286","properties":{"name":"右更","en":"Official in Charge of Pasturing","pinyin":"You Geng","desig":"右更","rank":3,"display":[23.9561,14.165,10]},"geometry":{"type":"Point","coordinates":[23.9561,14.165]}},{"type":"Feature","id":"287","properties":{"name":"右旗","en":"Right Flag","pinyin":"You Qi","desig":"右旗","rank":3,"display":[-65.0455,-0.5976,16]},"geometry":{"type":"Point","coordinates":[-65.0455,-0.5976]}},{"type":"Feature","id":"288","properties":{"name":"右摄提","en":"Right Conductor","pinyin":"You She Ti","desig":"右摄提","rank":3,"display":[-152.2566,17.0978,2.6]},"geometry":{"type":"Point","coordinates":[-152.2566,17.0978]}},{"type":"Feature","id":"289","properties":{"name":"鱼","en":"Fish","pinyin":"Yu","desig":"鱼","rank":3,"display":[-91.5218,-34.7527,0]},"geometry":{"type":"Point","coordinates":[-91.5218,-34.7527]}},{"type":"Feature","id":"290","properties":{"name":"羽林军","en":"Palace Guard","pinyin":"Yu Lin Jun","desig":"羽林军","rank":3,"display":[-19.806999999999988,-18.615,21.8]},"geometry":{"type":"Point","coordinates":[-19.806999999999988,-18.615]}},{"type":"Feature","id":"291","properties":{"name":"玉井","en":"Jade Well","pinyin":"Yu Jing","desig":"玉井","rank":3,"display":[77.3807,-6.9202,4]},"geometry":{"type":"Point","coordinates":[77.3807,-6.9202]}},{"type":"Feature","id":"292","properties":{"name":"御女","en":"Maids-in-waiting","pinyin":"Yu Nü","desig":"御女","rank":3,"display":[-83.9703,74.0834,25.7]},"geometry":{"type":"Point","coordinates":[-83.9703,74.0834]}},{"type":"Feature","id":"293","properties":{"name":"月","en":"Lunar Star","pinyin":"Yue","desig":"月","rank":3,"display":[61.1738,22.0819,0]},"geometry":{"type":"Point","coordinates":[61.1738,22.0819]}},{"type":"Feature","id":"294","properties":{"name":"附耳(附官)","en":"Whisper (Vassal of Net)","pinyin":"Fu Er","desig":"附耳(附官)","rank":3,"display":[69.8188,15.918,0]},"geometry":{"type":"Point","coordinates":[69.8188,15.918]}},{"type":"Feature","id":"295","properties":{"name":"云雨","en":"Cloud and Rain","pinyin":"Yun Yu","desig":"云雨","rank":3,"display":[-5.4512,0.3721,5.6]},"geometry":{"type":"Point","coordinates":[-5.4512,0.3721]}},{"type":"Feature","id":"296","properties":{"name":"造父","en":"Zaofu","pinyin":"Zao Fu","desig":"造父","rank":3,"display":[-28.4152,59.6611,11.4]},"geometry":{"type":"Point","coordinates":[-28.4152,59.6611]}},{"type":"Feature","id":"297","properties":{"name":"长垣","en":"Long Wall","pinyin":"Chang Yuan","desig":"长垣","rank":3,"display":[160.1817,10.5742,7.2]},"geometry":{"type":"Point","coordinates":[160.1817,10.5742]}},{"type":"Feature","id":"298","properties":{"name":"丈人","en":"Grandfather","pinyin":"Zhang Ren","desig":"丈人","rank":3,"display":[83.8577,-34.7723,2.1]},"geometry":{"type":"Point","coordinates":[83.8577,-34.7723]}},{"type":"Feature","id":"299","properties":{"name":"招摇","en":"Twinkling Indicator","pinyin":"Zhao Yao","desig":"招摇","rank":3,"display":[-141.9805,38.3083,0]},"geometry":{"type":"Point","coordinates":[-141.9805,38.3083]}},{"type":"Feature","id":"300","properties":{"name":"辅(附官)","en":"Assistant (Vassal of Northern Dipper)","pinyin":"Fu","desig":"辅(附官)","rank":3,"display":[-158.6936,54.988,0]},"geometry":{"type":"Point","coordinates":[-158.6936,54.988]}},{"type":"Feature","id":"301","properties":{"name":"折威","en":"Executions","pinyin":"Zhe Wei","desig":"折威","rank":3,"display":[-140.3953,-25.9517,12.8]},"geometry":{"type":"Point","coordinates":[-140.3953,-25.9517]}},{"type":"Feature","id":"302","properties":{"name":"阵车","en":"Battle Chariots","pinyin":"Zhen Che","desig":"阵车","rank":3,"display":[-133.9851,-29.0545,6.9]},"geometry":{"type":"Point","coordinates":[-133.9851,-29.0545]}},{"type":"Feature","id":"303","properties":{"name":"右辖(附官)","en":"Right linchpin (Vassal of Chariot)","pinyin":"You Xia","desig":"右辖(附官)","rank":3,"display":[-177.8966,-24.7289,0]},"geometry":{"type":"Point","coordinates":[-177.8966,-24.7289]}},{"type":"Feature","id":"304","properties":{"name":"织女","en":"Weaving Girl","pinyin":"Zhi Nü","desig":"织女","rank":3,"display":[-79.7861,38.6376,2.1]},"geometry":{"type":"Point","coordinates":[-79.7861,38.6376]}},{"type":"Feature","id":"305","properties":{"name":"左辖(附官)","en":"Left linchpin (Vassal of Chariot)","pinyin":"Zuo Xia","desig":"左辖(附官)","rank":3,"display":[-171.9824,-16.196,0]},"geometry":{"type":"Point","coordinates":[-171.9824,-16.196]}},{"type":"Feature","id":"306","properties":{"name":"周鼎","en":"Tripod of the Zhou","pinyin":"Zhou Ding","desig":"周鼎","rank":3,"display":[-163.4815,29.2049,3.2]},"geometry":{"type":"Point","coordinates":[-163.4815,29.2049]}},{"type":"Feature","id":"307","properties":{"name":"诸王","en":"Feudal Kings","pinyin":"Zhu Wang","desig":"诸王","rank":3,"display":[79.4466,25.2846,17.8]},"geometry":{"type":"Point","coordinates":[79.4466,25.2846]}},{"type":"Feature","id":"308","properties":{"name":"柱(毕宿)","en":"Pillars (In Net Mansion)","pinyin":"Zhu(Bi Xiu)","desig":"柱(毕宿)","rank":3,"display":[81.6824,37.1579,13.3]},"geometry":{"type":"Point","coordinates":[81.6824,37.1579]}},{"type":"Feature","id":"309","properties":{"name":"柱(角宿)","en":"Pillars (In Horn Mansion)","pinyin":"Zhu(Jiao Xiu)","desig":"柱(角宿)","rank":3,"display":[-151.6582,-38.9929,16.4]},"geometry":{"type":"Point","coordinates":[-151.6582,-38.9929]}},{"type":"Feature","id":"310","properties":{"name":"柱史","en":"Official of Royal Archives","pinyin":"Zhu Shi","desig":"柱史","rank":3,"display":[-84.8107,71.3378,0]},"geometry":{"type":"Point","coordinates":[-84.8107,71.3378]}},{"type":"Feature","id":"311","properties":{"name":"子","en":"Son","pinyin":"Zi","desig":"子","rank":3,"display":[88.0094,-34.7849,2]},"geometry":{"type":"Point","coordinates":[88.0094,-34.7849]}},{"type":"Feature","id":"312","properties":{"name":"宗","en":"Patriarchal Clan","pinyin":"Zong","desig":"宗","rank":3,"display":[-78.4146,19.3639,2.4]},"geometry":{"type":"Point","coordinates":[-78.4146,19.3639]}},{"type":"Feature","id":"313","properties":{"name":"宗人","en":"Official of Religious Ceremonies","pinyin":"Zong Ren","desig":"宗人","rank":3,"display":[-89.2853,2.8369,3.1]},"geometry":{"type":"Point","coordinates":[-89.2853,2.8369]}},{"type":"Feature","id":"314","properties":{"name":"宗正","en":"Official for the Royal Clan","pinyin":"Zong Zheng","desig":"宗正","rank":3,"display":[-93.5793,3.6373,1.9]},"geometry":{"type":"Point","coordinates":[-93.5793,3.6373]}},{"type":"Feature","id":"315","properties":{"name":"左更","en":"Official in Charge of the Forest","pinyin":"Zuo Geng","desig":"左更","rank":3,"display":[41.2887,18.5218,6.9]},"geometry":{"type":"Point","coordinates":[41.2887,18.5218]}},{"type":"Feature","id":"316","properties":{"name":"左旗","en":"Left Flag","pinyin":"Zuo Qi","desig":"左旗","rank":3,"display":[-60.7033,17.3449,8.5]},"geometry":{"type":"Point","coordinates":[-60.7033,17.3449]}},{"type":"Feature","id":"317","properties":{"name":"左摄提","en":"Left Conductor","pinyin":"Zuo She Ti","desig":"左摄提","rank":3,"display":[-139.2541,15.3463,3.2]},"geometry":{"type":"Point","coordinates":[-139.2541,15.3463]}},{"type":"Feature","id":"318","properties":{"name":"座旗","en":"Seat Flags","pinyin":"Zuo Qi","desig":"座旗","rank":3,"display":[102.0347,43.8294,9.9]},"geometry":{"type":"Point","coordinates":[102.0347,43.8294]}}]}